NORAD_CAT_ID,OBJECT_NAME,OBJECT_TYPE,EPOCH,MEAN_MOTION,ECCENTRICITY,INCLINATION,RA_OF_ASC_NODE,ARG_OF_PERICENTER,MEAN_ANOMALY,BSTAR,MEAN_MOTION_DOT,MEAN_MOTION_DDOT,TLE_LINE0,TLE_LINE1,TLE_LINE2,SEMIMAJOR_AXIS,PERIOD,APOGEE,PERIGEE,DECAYED
53031.0,STARLINK-4137,PAYLOAD,2023-05-31 14:41:07,15.08842093,9.55e-05,53.2172,302.0025,82.8878,277.2223,0.00012011,1.624e-05,0.0,0 STARLINK-4137,1 53031U 22076AX  23151.61188860  .00001624  00000-0  12011-3 0  9990,2 53031  53.2172 302.0025 0000955  82.8878 277.2223 15.08842093 50185,6917.874,95.437,540.4,539.078,0.0
53031.0,STARLINK-4137,PAYLOAD,2023-05-31 16:16:30,15.08842917,9.18e-05,53.2171,301.7052,83.4984,276.6113,0.00012836,1.756e-05,0.0,0 STARLINK-4137,1 53031U 22076AX  23151.67812785  .00001756  00000-0  12836-3 0  9997,2 53031  53.2171 301.7052 0000918  83.4984 276.6113 15.08842917 50191,6917.871,95.437,540.372,539.101,0.0
53031.0,STARLINK-4137,PAYLOAD,2023-06-01 09:45:44,15.0884092,9.45e-05,53.2165,298.4342,82.1035,278.0064,6.3306e-05,7.2e-06,0.0,0 STARLINK-4137,1 53031U 22076AX  23152.40677033  .00000720  00000-0  63306-4 0  9993,2 53031  53.2165 298.4342 0000945  82.1035 278.0064 15.08840920 50307,6917.878,95.437,540.396,539.089,0.0
53031.0,STARLINK-4137,PAYLOAD,2023-06-02 12:47:18,15.08833431,9.83e-05,53.217,293.3787,93.7016,266.4089,-2.1165e-05,-6.24e-06,0.0,0 STARLINK-4137,1 53031U 22076AX  23153.53285753 -.00000624  00000-0 -21165-4 0  9994,2 53031  53.2170 293.3787 0000983  93.7016 266.4089 15.08833431 50946,6917.9,95.438,540.445,539.085,0.0
53031.0,STARLINK-4137,PAYLOAD,2023-06-02 14:22:42,15.08832646,9.51e-05,53.2171,293.0816,91.9469,268.1632,-2.8744e-05,-7.45e-06,0.0,0 STARLINK-4137,1 53031U 22076AX  23153.59909832 -.00000745  00000-0 -28744-4 0  9995,2 53031  53.2171 293.0816 0000951  91.9469 268.1632 15.08832646 50483,6917.903,95.438,540.426,539.11,0.0
53031.0,STARLINK-4137,PAYLOAD,2023-06-02 19:08:51,15.08838978,0.000103,53.2172,292.1879,99.4467,260.6642,-3.4752e-05,-8.41e-06,0.0,0 STARLINK-4137,1 53031U 22076AX  23153.79781444 -.00000841  00000-0 -34752-4 0  9997,2 53031  53.2172 292.1879 0001030  99.4467 260.6642 15.08838978 50519,6917.884,95.438,540.461,539.036,0.0
53031.0,STARLINK-4137,PAYLOAD,2023-06-03 14:13:28,15.08838468,0.0001042,53.2173,288.6193,104.1281,255.9827,3.7485e-05,3.09e-06,0.0,0 STARLINK-4137,1 53031U 22076AX  23154.59269435  .00000309  00000-0  37485-4 0  9990,2 53031  53.2173 288.6193 0001042 104.1281 255.9827 15.08838468 50639,6917.885,95.438,540.471,539.029,0.0
53031.0,STARLINK-4137,PAYLOAD,2023-06-03 15:48:51,15.08839617,0.0001038,53.2173,288.3219,104.006,256.1048,4.4834e-05,4.26e-06,0.0,0 STARLINK-4137,1 53031U 22076AX  23154.65893340  .00000426  00000-0  44834-4 0  9991,2 53031  53.2173 288.3219 0001038 104.0060 256.1048 15.08839617 51113,6917.882,95.438,540.465,539.028,0.0
53031.0,STARLINK-4137,PAYLOAD,2023-06-03 18:59:38,15.08840597,0.0001041,53.2173,287.727,104.2817,255.8291,5.0206e-05,5.11e-06,0.0,0 STARLINK-4137,1 53031U 22076AX  23154.79141268  .00000511  00000-0  50206-4 0  9996,2 53031  53.2173 287.7270 0001041 104.2817 255.8291 15.08840597 50663,6917.879,95.438,540.464,539.023,0.0
53031.0,STARLINK-4137,PAYLOAD,2023-06-04 09:18:06,15.08832261,0.000103,53.2172,285.0505,112.4848,247.6253,8.5896e-05,1.079e-05,0.0,0 STARLINK-4137,1 53031U 22076AX  23155.38757831  .00001079  00000-0  85896-4 0  9994,2 53031  53.2172 285.0505 0001030 112.4848 247.6253 15.08832261 51226,6917.904,95.438,540.482,539.056,0.0
53031.0,STARLINK-4137,PAYLOAD,2023-06-04 14:04:15,15.0883719,0.0001029,53.2171,284.1582,112.0829,248.0273,0.00012315,1.673e-05,0.0,0 STARLINK-4137,1 53031U 22076AX  23155.58629488  .00001673  00000-0  12315-3 0  9997,2 53031  53.2171 284.1582 0001029 112.0829 248.0273 15.08837190 50786,6917.889,95.438,540.466,539.042,0.0
53031.0,STARLINK-4137,PAYLOAD,2023-06-04 15:39:39,15.08833389,8.84e-05,53.2166,283.8642,103.5984,256.5106,0.00022883,3.355e-05,0.0,0 STARLINK-4137,1 53031U 22076AX  23155.65253593  .00003355  00000-0  22883-3 0  9995,2 53031  53.2166 283.8642 0000884 103.5984 256.5106 15.08833389 50794,6917.901,95.438,540.377,539.154,0.0
53031.0,STARLINK-4137,PAYLOAD,2023-06-05 01:11:57,15.08841208,8.65e-05,53.2172,282.0795,82.8219,277.2871,9.2019e-05,1.177e-05,0.0,0 STARLINK-4137,1 53031U 22076AX  23156.04997422  .00001177  00000-0  92019-4 0  9994,2 53031  53.2172 282.0795 0000865  82.8219 277.2871 15.08841208 51328,6917.877,95.437,540.34,539.143,0.0
53031.0,STARLINK-4137,PAYLOAD,2023-06-05 09:08:53,15.08835438,8.73e-05,53.2168,280.5933,95.8558,264.2533,2.155e-05,5.5e-07,0.0,0 STARLINK-4137,1 53031U 22076AX  23156.38118037  .00000055  00000-0  21550-4 0  9994,2 53031  53.2168 280.5933 0000873  95.8558 264.2533 15.08835438 51373,6917.894,95.438,540.363,539.155,0.0
53031.0,STARLINK-4137,PAYLOAD,2023-06-05 12:19:40,15.08835855,8.77e-05,53.2167,279.9984,95.6804,264.4288,1.7075e-05,-1.6e-07,0.0,0 STARLINK-4137,1 53031U 22076AX  23156.51366072 -.00000016  00000-0  17075-4 0  9998,2 53031  53.2167 279.9984 0000877  95.6804 264.4288 15.08835855 50928,6917.893,95.438,540.365,539.151,0.0
53031.0,STARLINK-4137,PAYLOAD,2023-06-05 17:05:49,15.08841272,8.43e-05,53.2168,279.1059,87.4137,272.6951,6.1112e-05,6.85e-06,0.0,0 STARLINK-4137,1 53031U 22076AX  23156.71237604  .00000685  00000-0  61112-4 0  9990,2 53031  53.2168 279.1059 0000843  87.4137 272.6951 15.08841272 50956,6917.877,95.437,540.325,539.158,0.0
53031.0,STARLINK-4137,PAYLOAD,2023-06-06 08:59:41,15.08832586,8.74e-05,53.2177,276.1332,79.3297,280.7793,3.0235e-05,1.93e-06,0.0,0 STARLINK-4137,1 53031U 22076AX  23157.37478366  .00000193  00000-0  30235-4 0  9991,2 53031  53.2177 276.1332 0000874  79.3297 280.7793 15.08832586 51524,6917.903,95.438,540.373,539.163,0.0
53031.0,STARLINK-4137,PAYLOAD,2023-06-06 12:10:27,15.08839267,0.0001019,53.2178,275.5377,91.768,268.3429,-2.6495e-07,-2.92e-06,0.0,0 STARLINK-4137,1 53031U 22076AX  23157.50726115 -.00000292  00000-0 -26495-6 0  9991,2 53031  53.2178 275.5377 0001019  91.7680 268.3429 15.08839267 51074,6917.883,95.438,540.453,539.043,0.0
53031.0,STARLINK-4137,PAYLOAD,2023-06-06 16:56:36,15.08843737,8.89e-05,53.2175,274.6456,81.6598,278.4494,9.6728e-05,1.252e-05,0.0,0 STARLINK-4137,1 53031U 22076AX  23157.70597507  .00001252  00000-0  96728-4 0  9993,2 53031  53.2175 274.6456 0000889  81.6598 278.4494 15.08843737 51575,6917.869,95.437,540.349,539.119,0.0
53031.0,STARLINK-4137,PAYLOAD,2023-06-07 07:15:05,15.08835001,9.49e-05,53.2176,271.9701,97.951,262.1589,5.7343e-05,6.25e-06,0.0,0 STARLINK-4137,1 53031U 22076AX  23158.30214204  .00000625  00000-0  57343-4 0  9993,2 53031  53.2176 271.9701 0000949  97.9510 262.1589 15.08835001 51660,6917.896,95.438,540.417,539.104,0.0
53031.0,STARLINK-4137,PAYLOAD,2023-06-07 19:58:09,15.08845488,8.98e-05,53.2168,269.5914,83.0005,277.1089,8.795e-05,1.112e-05,0.0,0 STARLINK-4137,1 53031U 22076AX  23158.83205498  .00001112  00000-0  87950-4 0  9995,2 53031  53.2168 269.5914 0000898  83.0005 277.1089 15.08845488 51276,6917.864,95.437,540.35,539.107,0.0
53031.0,STARLINK-4137,PAYLOAD,2023-06-08 07:05:52,15.08837469,9.6e-05,53.2169,267.5087,84.3356,275.7745,9.1849e-05,1.174e-05,0.0,0 STARLINK-4137,1 53031U 22076AX  23159.29574098  .00001174  00000-0  91849-4 0  9991,2 53031  53.2169 267.5087 0000960  84.3356 275.7745 15.08837469 51812,6917.888,95.438,540.417,539.089,0.0
53031.0,STARLINK-4137,PAYLOAD,2023-06-08 11:52:01,15.08834776,9.47e-05,53.2173,266.6163,86.3183,273.7917,5.3254e-05,5.6e-06,0.0,0 STARLINK-4137,1 53031U 22076AX  23159.49446428  .00000560  00000-0  53254-4 0  9994,2 53031  53.2173 266.6163 0000947  86.3183 273.7917 15.08834776 51375,6917.896,95.438,540.416,539.106,0.0
53031.0,STARLINK-4137,PAYLOAD,2023-06-08 13:27:24,15.08839821,0.0001099,53.2175,266.3178,101.4982,258.6134,1.5317e-05,-4.4e-07,0.0,0 STARLINK-4137,1 53031U 22076AX  23159.56070169 -.00000044  00000-0  15317-4 0  9993,2 53031  53.2175 266.3178 0001099 101.4982 258.6134 15.08839821 51385,6917.881,95.438,540.506,538.986,0.0
53031.0,STARLINK-4137,PAYLOAD,2023-06-09 13:18:11,15.08846092,6.69e-05,53.2171,261.8591,94.1293,265.9775,4.6622e-05,4.55e-06,0.0,0 STARLINK-4137,1 53031U 22076AX  23160.55429691  .00000455  00000-0  46622-4 0  9990,2 53031  53.2171 261.8591 0000669  94.1293 265.9775 15.08846092 51532,6917.862,95.437,540.19,539.264,0.0
53031.0,STARLINK-4137,PAYLOAD,2023-06-09 16:28:57,15.08850918,7.87e-05,53.217,261.2632,96.3775,263.7307,8.0312e-05,9.91e-06,0.0,0 STARLINK-4137,1 53031U 22076AX  23160.68677219  .00000991  00000-0  80312-4 0  9994,2 53031  53.2170 261.2632 0000787  96.3775 263.7307 15.08850918 52025,6917.847,95.437,540.256,539.168,0.0
53031.0,STARLINK-4137,PAYLOAD,2023-06-10 06:47:26,15.08834417,9.49e-05,53.217,258.5864,96.5783,263.5317,7.1309e-05,8.47e-06,0.0,0 STARLINK-4137,1 53031U 22076AX  23161.28294292  .00000847  00000-0  71309-4 0  9993,2 53031  53.2170 258.5864 0000949  96.5783 263.5317 15.08834417 52117,6917.897,95.438,540.419,539.106,0.0
53031.0,STARLINK-4137,PAYLOAD,2023-06-10 13:08:58,15.08841892,0.0001148,53.2166,257.3951,101.7071,258.405,8.6414e-05,1.088e-05,0.0,0 STARLINK-4137,1 53031U 22076AX  23161.54789785  .00001088  00000-0  86414-4 0  9999,2 53031  53.2166 257.3951 0001148 101.7071 258.4050 15.08841892 51680,6917.875,95.437,540.534,538.945,0.0
53031.0,STARLINK-4137,PAYLOAD,2023-06-11 05:02:50,15.08836609,9.23e-05,53.2168,254.4254,94.6734,265.4364,4.5735e-05,4.4e-06,0.0,0 STARLINK-4137,1 53031U 22076AX  23162.21030378  .00000440  00000-0  45735-4 0  9993,2 53031  53.2168 254.4254 0000923  94.6734 265.4364 15.08836609 52252,6917.891,95.438,540.394,539.117,0.0
53031.0,STARLINK-4137,PAYLOAD,2023-06-11 12:59:45,15.08844278,9.48e-05,53.2171,252.9386,93.9849,266.1251,3.3043e-05,2.38e-06,0.0,0 STARLINK-4137,1 53031U 22076AX  23162.54149935  .00000238  00000-0  33043-4 0  9993,2 53031  53.2171 252.9386 0000948  93.9849 266.1251 15.08844278 51838,6917.867,95.437,540.388,539.076,0.0
